{
  "norad_id": 59617,
  "name": "STARLINK-31769",
  "history": [
    {
      "epoch": "2026-03-28T13:16:07.536864Z",
      "apogee_km": 483.9588300077212,
      "perigee_km": 482.13800862114294,
      "latitude_deg": -1.0602901287602174e-05,
      "longitude_deg": -93.29077931634886,
      "height_km": 482.90097119534437,
      "semi_major_axis_km": 6861.185419314432,
      "eccentricity": 0.00013269,
      "inclination_deg": 43.0046,
      "raan_deg": 291.7123,
      "arg_perigee_deg": 265.2486,
      "mean_anomaly_deg": 94.8214,
      "mean_motion_rev_day": 15.27580226
    },
    {
      "epoch": "2026-03-28T21:06:54.025344Z",
      "apogee_km": 483.9896395320384,
      "perigee_km": 482.07948936849516,
      "latitude_deg": 4.059214311264455e-05,
      "longitude_deg": 146.84733923820468,
      "height_km": 482.86419719802177,
      "semi_major_axis_km": 6861.1715644502665,
      "eccentricity": 0.0001392,
      "inclination_deg": 43.0045,
      "raan_deg": 289.8663,
      "arg_perigee_deg": 266.8519,
      "mean_anomaly_deg": 93.2174,
      "mean_motion_rev_day": 15.27584853
    }
  ]
}